APRIZESAT 2             
1 28366U 04025A   26167.44975541  .00000127  00000+0  52905-4 0  9991
2 28366  98.1013 333.4719 0104329 252.1014 106.8776 14.38035550151537
SAUDICOMSAT 1           
1 28369U 04025D   26166.98505362  .00000323  00000+0  85012-4 0  9995
2 28369  98.5771 177.0841 0032731  29.2539 331.0481 14.55472972163951
SAUDICOMSAT 2           
1 28370U 04025E   26167.57305978  .00000195  00000+0  62142-4 0  9990
2 28370  98.6641 179.8019 0054163 261.3957  98.1097 14.49980928160019
APRIZESAT 1             
1 28372U 04025G   26167.53656570  .00000183  00000+0  57055-4 0  9999
2 28372  98.6303 178.2445 0045062 155.7988 204.5336 14.51776700161812
NANOSAT-1               
1 28493U 04049B   26167.62828528  .00000838  00000+0  11764-3 0  9996
2 28493  98.2276 304.2756 0002853 305.2196  54.8748 14.80158628155362
SAUDICOMSAT 7           
1 31119U 07012C   26167.49853294  .00000349  00000+0  71698-4 0  9991
2 31119  98.3778 141.6161 0055238 197.3712 162.5603 14.66109673 22338
SAUDICOMSAT 6           
1 31121U 07012E   26167.47456013  .00000479  00000+0  10131-3 0  9998
2 31121  98.4098 134.9776 0071098 330.0150  29.6987 14.62557581 20087
SAUDICOMSAT 5           
1 31124U 07012H   26167.47294478  .00000515  00000+0  97113-4 0  9993
2 31124  98.3489 142.3373 0048433 126.8976 233.6681 14.68155624 23497
SAUDICOMSAT 3           
1 31125U 07012J   26167.16261770  .00000737  00000+0  12815-3 0  9990
2 31125  98.3144 142.5690 0040284  56.3821 304.1219 14.70704352 24675
SAUDICOMSAT 4           
1 31127U 07012L   26167.47142116  .00000360  00000+0  76054-4 0  9996
2 31127  98.3983 140.0273 0062059 260.5042  98.9142 14.64511620 21189
APRIZESAT 4             
1 35684U 09041D   26167.44786567  .00000570  00000+0  74726-4 0  9990
2 35684  98.1413 242.7536 0042451 325.5055  34.3405 14.83878526911253
APRIZESAT 3             
1 35686U 09041F   26167.43022316  .00001528  00000+0  13601-3 0  9994
2 35686  98.2059 320.6177 0062776  70.1926 290.6047 14.96239329916262
S-NET D                 
1 43186U 18014G   26167.27431769  .00004534  00000+0  23493-3 0  9996
2 43186  97.5367  72.0710 0009030  33.3736 326.8064 15.16666614458621
S-NET B                 
1 43187U 18014H   26167.54966193  .00004440  00000+0  23026-3 0  9999
2 43187  97.5370  72.3313 0009481  27.3364 332.8366 15.16638008458660
S-NET A                 
1 43188U 18014J   26167.47112684  .00004355  00000+0  22569-3 0  9996
2 43188  97.5382  72.4617 0009408  28.3091 331.8652 15.16675879458652
S-NET C                 
1 43189U 18014K   26167.48755719  .00004406  00000+0  22852-3 0  9992
2 43189  97.5398  72.5526 0010535  20.0030 340.1614 15.16629294457206
SALSAT                  
1 46495U 20068K   26167.55682940  .00006231  00000+0  21872-3 0  9999
2 46495  97.8845 170.5831 0008036 310.6288  49.4251 15.29791688315269
OOV-CUBE (TUBSAT-30)    
1 60240U 24128F   26167.52316055  .00001560  00000+0  12948-3 0  9996
2 60240  61.9942 227.8889 0044672 133.5765 226.9049 15.02772018106015
LPNTSAT-001 (IOD-1)     
1 68408U 26065A   26167.61550323  .00002412  00000+0  11970-3 0  9991
2 68408  97.4015  48.1375 0016717  12.8007 347.3649 15.18535599 12170
